[{"OBJECT_NAME":"ONEWEB-0245","OBJECT_ID":"2021-045M","EPOCH":"2026-03-09T23:07:52.663008","MEAN_MOTION":13.15547649,"ECCENTRICITY":0.00018263,"INCLINATION":87.8948,"RA_OF_ASC_NODE":278.9979,"ARG_OF_PERICENTER":91.2758,"MEAN_ANOMALY":268.8582,"EPHEMERIS_TYPE":0,"CLASSIFICATION_TYPE":"U","NORAD_CAT_ID":48778,"ELEMENT_SET_NO":999,"REV_AT_EPOCH":23133,"BSTAR":0.00019767808,"MEAN_MOTION_DOT":8.7e-7,"MEAN_MOTION_DDOT":0},{"OBJECT_NAME":"CZ-4C R\/B","OBJECT_ID":"2009-072C","EPOCH":"2026-03-09T22:46:59.894976","MEAN_MOTION":13.46231136,"ECCENTRICITY":0.01569604,"INCLINATION":100.5126,"RA_OF_ASC_NODE":93.9284,"ARG_OF_PERICENTER":182.9065,"MEAN_ANOMALY":239.8284,"EPHEMERIS_TYPE":0,"CLASSIFICATION_TYPE":"U","NORAD_CAT_ID":36123,"ELEMENT_SET_NO":999,"REV_AT_EPOCH":79755,"BSTAR":0.00011437348,"MEAN_MOTION_DOT":2.5e-7,"MEAN_MOTION_DDOT":0}]
